NORAD_CAT_ID,OBJECT_NAME,OBJECT_TYPE,EPOCH,MEAN_MOTION,ECCENTRICITY,INCLINATION,RA_OF_ASC_NODE,ARG_OF_PERICENTER,MEAN_ANOMALY,BSTAR,MEAN_MOTION_DOT,MEAN_MOTION_DDOT,TLE_LINE0,TLE_LINE1,TLE_LINE2,SEMIMAJOR_AXIS,PERIOD,APOGEE,PERIGEE,DECAYED
53969.0,STARLINK-4468,PAYLOAD,2023-10-27 22:17:43,15.08844625,0.0001519,53.2166,141.6934,91.7905,268.3261,0.00011746,1.582e-05,0.0,0 STARLINK-4468,1 53969U 22125F   23300.92897017  .00001582  00000-0  11746-3 0  9993,2 53969  53.2166 141.6934 0001519  91.7905 268.3261 15.08844625 58927,6917.866,95.437,540.782,538.68,0.0
53969.0,STARLINK-4468,PAYLOAD,2023-10-28 14:11:34,15.08835769,0.0001481,53.2166,138.7195,91.6997,268.4165,2.9243e-06,-2.41e-06,0.0,0 STARLINK-4468,1 53969U 22125F   23301.59137591 -.00000241  00000-0  29243-5 0  9996,2 53969  53.2166 138.7195 0001481  91.6997 268.4165 15.08835769 59026,6917.893,95.438,540.783,538.734,0.0
53969.0,STARLINK-4468,PAYLOAD,2023-10-28 20:33:07,15.08838971,0.0001514,53.2167,137.5303,92.6404,267.4762,3.927e-05,3.37e-06,0.0,0 STARLINK-4468,1 53969U 22125F   23301.85633444  .00000337  00000-0  39270-4 0  9998,2 53969  53.2167 137.5303 0001514  92.6404 267.4762 15.08838971 59138,6917.884,95.438,540.796,538.701,0.0
53969.0,STARLINK-4468,PAYLOAD,2023-10-28 22:08:30,15.08839999,0.0001559,53.217,137.2334,97.6267,262.4902,1.7042e-05,-1.7e-07,0.0,0 STARLINK-4468,1 53969U 22125F   23301.92257396 -.00000017  00000-0  17042-4 0  9993,2 53969  53.2170 137.2334 0001559  97.6267 262.4902 15.08839999 59079,6917.88,95.438,540.824,538.667,0.0
53969.0,STARLINK-4468,PAYLOAD,2023-10-29 06:05:26,15.08840752,0.0001505,53.2168,135.7461,91.1351,268.9814,7.7326e-05,9.43e-06,0.0,0 STARLINK-4468,1 53969U 22125F   23302.25377409  .00000943  00000-0  77326-4 0  9996,2 53969  53.2168 135.7461 0001505  91.1351 268.9814 15.08840752 59122,6917.878,95.438,540.784,538.702,0.0
53969.0,STARLINK-4468,PAYLOAD,2023-10-29 21:59:17,15.08848974,0.0001516,53.2168,132.7724,90.8321,269.2845,0.00016672,2.367e-05,0.0,0 STARLINK-4468,1 53969U 22125F   23302.91616922  .00002367  00000-0  16672-3 0  9993,2 53969  53.2168 132.7724 0001516  90.8321 269.2845 15.08848974 59229,6917.853,95.437,540.767,538.669,0.0
53969.0,STARLINK-4468,PAYLOAD,2023-10-29 23:34:40,15.08850161,0.0001396,53.2162,132.4735,89.2773,270.8379,0.00018078,2.591e-05,0.0,0 STARLINK-4468,1 53969U 22125F   23302.98240832  .00002591  00000-0  18078-3 0  9994,2 53969  53.2162 132.4735 0001396  89.2773 270.8379 15.08850161 59301,6917.849,95.437,540.68,538.749,0.0
53969.0,STARLINK-4468,PAYLOAD,2023-10-30 12:17:47,15.08803302,0.0001434,53.2167,130.0948,330.9786,29.1126,-0.00040998,-6.8e-05,0.0,0 STARLINK-4468,1 53969U 22125F   23303.51235205 -.00006800  00000-0 -40998-3 0  9997,2 53969  53.2167 130.0948 0001434 330.9786  29.1126 15.08803302 59387,6917.993,95.44,540.85,538.866,0.0
53969.0,STARLINK-4468,PAYLOAD,2023-10-30 18:39:18,15.08835335,0.0001548,53.2162,128.9053,89.2967,270.8203,2.2207e-05,6.5e-07,0.0,0 STARLINK-4468,1 53969U 22125F   23303.77729920  .00000065  00000-0  22207-4 0  9996,2 53969  53.2162 128.9053 0001548  89.2967 270.8203 15.08835335 59423,6917.895,95.438,540.831,538.689,0.0
53969.0,STARLINK-4468,PAYLOAD,2023-10-31 12:08:33,15.08841631,0.0001399,53.2174,125.634,83.1849,276.9302,9.5849e-05,1.238e-05,0.0,0 STARLINK-4468,1 53969U 22125F   23304.50593853  .00001238  00000-0  95849-4 0  9997,2 53969  53.2174 125.6340 0001399  83.1849 276.9302 15.08841631 59462,6917.875,95.437,540.708,538.773,0.0
53969.0,STARLINK-4468,PAYLOAD,2023-10-31 18:30:05,15.0884649,0.0001352,53.2155,124.444,85.1914,274.9233,0.0002538,3.754e-05,0.0,0 STARLINK-4468,1 53969U 22125F   23304.77089649  .00003754  00000-0  25380-3 0  9996,2 53969  53.2155 124.4440 0001352  85.1914 274.9233 15.08846490 59574,6917.861,95.437,540.661,538.79,0.0
53969.0,STARLINK-4468,PAYLOAD,2023-11-01 05:37:47,15.08845428,0.0001372,53.2159,122.3635,76.6791,283.4354,0.00022022,3.219e-05,0.0,0 STARLINK-4468,1 53969U 22125F   23305.23457777  .00003219  00000-0  22022-3 0  9995,2 53969  53.2159 122.3635 0001372  76.6791 283.4354 15.08845428 59570,6917.864,95.437,540.678,538.78,0.0
53969.0,STARLINK-4468,PAYLOAD,2023-11-01 18:20:52,15.08845244,0.0001316,53.2159,119.9837,84.5758,275.5384,0.00021654,3.16e-05,0.0,0 STARLINK-4468,1 53969U 22125F   23305.76449658  .00003160  00000-0  21654-3 0  9997,2 53969  53.2159 119.9837 0001316  84.5758 275.5384 15.08845244 59723,6917.864,95.437,540.64,538.819,0.0
53969.0,STARLINK-4468,PAYLOAD,2023-11-01 21:31:38,15.08848625,0.0001357,53.2159,119.3889,84.5406,275.5741,0.00026458,3.926e-05,0.0,0 STARLINK-4468,1 53969U 22125F   23305.89697519  .00003926  00000-0  26458-3 0  9999,2 53969  53.2159 119.3889 0001357  84.5406 275.5741 15.08848625 59676,6917.854,95.437,540.658,538.78,0.0
53969.0,STARLINK-4468,PAYLOAD,2023-11-02 15:00:53,15.08842897,0.0001366,53.2162,116.1161,90.4972,269.6176,8.5799e-05,1.078e-05,0.0,0 STARLINK-4468,1 53969U 22125F   23306.62561601  .00001078  00000-0  85799-4 0  9993,2 53969  53.2162 116.1161 0001366  90.4972 269.6176 15.08842897 59785,6917.872,95.437,540.682,538.792,0.0
53969.0,STARLINK-4468,PAYLOAD,2023-11-02 18:11:39,15.08846486,0.0001414,53.217,115.5202,94.8336,265.2817,8.4896e-05,1.064e-05,0.0,0 STARLINK-4468,1 53969U 22125F   23306.75809519  .00001064  00000-0  84896-4 0  9992,2 53969  53.2170 115.5202 0001414  94.8336 265.2817 15.08846486 59804,6917.861,95.437,540.704,538.747,0.0
53969.0,STARLINK-4468,PAYLOAD,2023-11-03 02:08:35,15.08842487,0.0001377,53.2178,114.0353,87.4664,272.6486,4.0175e-05,3.52e-06,0.0,0 STARLINK-4468,1 53969U 22125F   23307.08929588  .00000352  00000-0  40175-4 0  9999,2 53969  53.2178 114.0353 0001377  87.4664 272.6486 15.08842487 59927,6917.873,95.437,540.69,538.785,0.0
53969.0,STARLINK-4468,PAYLOAD,2023-11-03 13:16:17,15.08846701,0.0001732,53.2172,111.9562,86.159,273.9601,-9.6397e-05,-1.822e-05,0.0,0 STARLINK-4468,1 53969U 22125F   23307.55297504 -.00001822  00000-0 -96397-4 0  9999,2 53969  53.2172 111.9562 0001732  86.1590 273.9601 15.08846701 59924,6917.86,95.437,540.923,538.527,0.0
53969.0,STARLINK-4468,PAYLOAD,2023-11-03 21:13:12,15.08847816,0.0001312,53.2169,110.4687,84.3865,275.7276,9.9859e-05,1.302e-05,0.0,0 STARLINK-4468,1 53969U 22125F   23307.88417357  .00001302  00000-0  99859-4 0  9992,2 53969  53.2169 110.4687 0001312  84.3865 275.7276 15.08847816 59972,6917.856,95.437,540.629,538.814,0.0
53969.0,STARLINK-4468,PAYLOAD,2023-11-04 03:34:45,15.08838453,0.0001379,53.2171,109.2788,85.2784,274.8365,5.2628e-05,5.5e-06,0.0,0 STARLINK-4468,1 53969U 22125F   23308.14913848  .00000550  00000-0  52628-4 0  9995,2 53969  53.2171 109.2788 0001379  85.2784 274.8365 15.08838453 60086,6917.885,95.438,540.704,538.796,0.0
53969.0,STARLINK-4468,PAYLOAD,2023-11-04 14:42:27,15.08834936,0.000139,53.2169,107.198,87.8922,272.2229,1.1618e-05,-1.03e-06,0.0,0 STARLINK-4468,1 53969U 22125F   23308.61282164 -.00000103  00000-0  11618-4 0  9996,2 53969  53.2169 107.1980 0001390  87.8922 272.2229 15.08834936 60082,6917.896,95.438,540.722,538.799,0.0
53969.0,STARLINK-4468,PAYLOAD,2023-11-04 17:53:13,15.08839337,0.0001373,53.2169,106.6034,85.2317,274.8831,7.7095e-05,9.39e-06,0.0,0 STARLINK-4468,1 53969U 22125F   23308.74529976  .00000939  00000-0  77095-4 0  9992,2 53969  53.2169 106.6034 0001373  85.2317 274.8831 15.08839337 60107,6917.882,95.438,540.697,538.798,0.0
53969.0,STARLINK-4468,PAYLOAD,2023-11-05 14:33:14,15.08849416,0.0001338,53.2168,102.7375,91.2176,268.8969,0.00020458,2.97e-05,0.0,0 STARLINK-4468,1 53969U 22125F   23309.60641472  .00002970  00000-0  20458-3 0  9991,2 53969  53.2168 102.7375 0001338  91.2176 268.8969 15.08849416 60230,6917.852,95.437,540.642,538.791,0.0
53969.0,STARLINK-4468,PAYLOAD,2023-11-05 17:44:00,15.08857295,0.0001387,53.2166,102.1429,86.9285,273.1866,0.00047799,7.331e-05,0.0,0 STARLINK-4468,1 53969U 22125F   23309.73889298  .00007331  00000-0  47799-3 0  9998,2 53969  53.2166 102.1429 0001387  86.9285 273.1866 15.08857295 60327,6917.828,95.436,540.652,538.733,0.0
53969.0,STARLINK-4468,PAYLOAD,2023-11-06 14:24:00,15.08854798,0.0001231,53.2157,98.2776,79.091,281.0221,0.00016756,2.381e-05,0.0,0 STARLINK-4468,1 53969U 22125F   23310.60000561  .00002381  00000-0  16756-3 0  9993,2 53969  53.2157  98.2776 0001231  79.0910 281.0221 15.08854798 60387,6917.835,95.437,540.552,538.849,0.0
53969.0,STARLINK-4468,PAYLOAD,2023-11-06 17:34:46,15.08861873,0.000137,53.2155,97.6825,76.8914,283.2231,0.00044992,6.884e-05,0.0,0 STARLINK-4468,1 53969U 22125F   23310.73248273  .00006884  00000-0  44992-3 0  9996,2 53969  53.2155  97.6825 0001370  76.8914 283.2231 15.08861873 60473,6917.814,95.436,540.626,538.731,0.0
53969.0,STARLINK-4468,PAYLOAD,2023-11-07 09:28:38,15.08826875,0.0001423,53.2152,94.7089,96.9478,263.1676,9.4786e-05,1.22e-05,0.0,0 STARLINK-4468,1 53969U 22125F   23311.39489579  .00001220  00000-0  94786-4 0  9991,2 53969  53.2152  94.7089 0001423  96.9478 263.1676 15.08826875 60571,6917.921,95.438,540.77,538.801,0.0
53969.0,STARLINK-4468,PAYLOAD,2023-11-07 14:14:48,15.08819553,0.0001123,53.2161,93.8145,83.8372,276.2747,0.00015689,2.209e-05,0.0,0 STARLINK-4468,1 53969U 22125F   23311.59362203  .00002209  00000-0  15689-3 0  9999,2 53969  53.2161  93.8145 0001123  83.8372 276.2747 15.08819553 60534,6917.943,95.439,540.585,539.031,0.0
53969.0,STARLINK-4468,PAYLOAD,2023-11-07 17:25:35,15.08809069,0.0001265,53.2166,93.2207,90.7109,269.4028,2.9758e-05,1.85e-06,0.0,0 STARLINK-4468,1 53969U 22125F   23311.72610582  .00000185  00000-0  29758-4 0  9994,2 53969  53.2166  93.2207 0001265  90.7109 269.4028 15.08809069 60621,6917.975,95.44,540.715,538.965,0.0
53969.0,STARLINK-4468,PAYLOAD,2023-11-08 09:19:27,15.08825098,0.0001183,53.2166,90.2487,94.7167,265.396,0.00055425,8.54e-05,0.0,0 STARLINK-4468,1 53969U 22125F   23312.38851419  .00008540  00000-0  55425-3 0  9995,2 53969  53.2166  90.2487 0001183  94.7167 265.3960 15.08825098 60726,6917.926,95.438,540.609,538.973,0.0
